     2.100          NAVIGATION                              RINEX VERSION / TYPE
fic2rin                                 10/29/2008 04:46:19 PGM / RUN BY / DATE
                                                            END OF HEADER
17 08 10 28 20  0  0.0  .398950651288D-04  .341060513165D-12  .000000000000D+00
     .270000000000D+02 -.256250000000D+02  .464090759814D-08 -.197701816533D+01
    -.131689012051D-05  .389519240707D-02  .898540019989D-05  .515360430145D+04
     .244800000000D+06  .782310962677D-07  .233096779771D+01 -.633299350739D-07
     .959605551126D+00  .205187500000D+03 -.279659974739D+01 -.795461705602D-08
    -.521807449660D-09  .100000000000D+01  .150300000000D+04  .000000000000D+00
     .240000000000D+01  .000000000000D+00 -.102445483208D-07  .270000000000D+02
     .237606000000D+06  .400000000000D+01
18 08 10 28 20  0  0.0 -.118694733828D-03  .397903932026D-11  .000000000000D+00
     .960000000000D+02  .488125000000D+02  .527557689181D-08 -.709929198189D+00
     .255182385445D-05  .989854440559D-02  .111199915409D-05  .515372771072D+04
     .244800000000D+06  .115483999252D-06 -.183885531625D+01  .208616256714D-06
     .945222730126D+00  .350375000000D+03 -.244621348940D+01 -.880643825207D-08
     .385730352932D-10  .100000000000D+01  .150300000000D+04  .000000000000D+00
     .240000000000D+01  .000000000000D+00 -.107102096081D-07  .960000000000D+02
     .237606000000D+06  .400000000000D+01
19 08 10 28 20  0  0.0  .356538221240D-04  .000000000000D+00  .000000000000D+00
     .850000000000D+02 -.237500000000D+02  .464876506830D-08 -.261173301188D+01
    -.109337270260D-05  .492225773633D-02  .930018723011D-05  .515374845886D+04
     .244800000000D+06 -.894069671631D-07  .238762403287D+01  .856816768646D-07
     .957421756756D+00  .199250000000D+03 -.440889244624D+00 -.791068665471D-08
    -.511449875369D-09  .100000000000D+01  .150300000000D+04  .000000000000D+00
     .240000000000D+01  .000000000000D+00 -.144354999065D-07  .850000000000D+02
     .237606000000D+06  .400000000000D+01
20 08 10 28 20  0  0.0  .100623816252D-03 -.102318153949D-11  .000000000000D+00
     .870000000000D+02  .477187500000D+02  .527307678767D-08 -.612869377612D+00
     .247918069363D-05  .356717011891D-02  .925734639168D-06  .515374673653D+04
     .244800000000D+06 -.931322574615D-08 -.189259035417D+01  .167638063431D-07
     .944809269978D+00  .352031250000D+03  .133734117379D+01 -.875500753835D-08
     .825034365993D-10  .100000000000D+01  .150300000000D+04  .000000000000D+00
     .240000000000D+01  .000000000000D+00 -.651925802231D-08  .870000000000D+02
     .237606000000D+06  .400000000000D+01
21 08 10 28 20  0  0.0  .448473729193D-04 -.147792889038D-11  .000000000000D+00
     .880000000000D+02  .940312500000D+02  .497735018376D-08  .513309424186D+00
     .508688390255D-05  .143455511425D-01  .995583832264D-05  .515368220139D+04
     .244800000000D+06  .223517417908D-07 -.289739654538D+01  .219792127609D-06
     .935748082669D+00  .172656250000D+03 -.266958760809D+01 -.836999150089D-08
    -.578595529398D-10  .100000000000D+01  .150300000000D+04  .000000000000D+00
     .240000000000D+01  .000000000000D+00 -.116415321827D-07  .880000000000D+02
     .237606000000D+06  .400000000000D+01
22 08 10 28 20  0  0.0  .209974590689D-03 -.341060513165D-12  .000000000000D+00
     .106000000000D+03  .468750000000D+02  .517128683343D-08 -.190598240073D+01
     .240840017796D-05  .514808762819D-02  .935047864914D-06  .515366740608D+04
     .244800000000D+06  .115483999252D-06 -.183270078625D+01  .409781932831D-07
     .942872913573D+00  .353093750000D+03 -.181558366895D+01 -.858892919195D-08
     .714315468392D-10  .100000000000D+01  .150300000000D+04  .000000000000D+00
     .240000000000D+01  .000000000000D+00 -.176951289177D-07  .106000000000D+03
     .237606000000D+06  .400000000000D+01
23 08 10 28 20  0  0.0  .378256198019D-03  .125055521494D-11  .000000000000D+00
     .112000000000D+03 -.119562500000D+03  .422981904608D-08  .303420267253D+01
    -.621750950813D-05  .584430561867D-02  .679492950439D-05  .515368161201D+04
     .244800000000D+06 -.838190317154D-07 -.820345234078D+00  .521540641785D-07
     .971115296107D+00  .255281250000D+03  .286526657801D+01 -.793104464556D-08
    -.377158567311D-09  .100000000000D+01  .150300000000D+04  .000000000000D+00
     .240000000000D+01  .000000000000D+00 -.200234353542D-07  .112000000000D+03
     .237606000000D+06  .400000000000D+01
24 08 10 28 20  0  0.0  .136758200824D-03  .295585778076D-11  .000000000000D+00
     .430000000000D+02  .103062500000D+03  .456876173584D-08 -.835653540941D+00
     .529177486897D-05  .738683214877D-02  .105239450932D-04  .515367054176D+04
     .244800000000D+06 -.111758708954D-07 -.286884649801D+01 -.819563865662D-07
     .952392620370D+00  .173031250000D+03 -.683003283931D+00 -.814712507475D-08
     .168221292806D-09  .100000000000D+01  .150300000000D+04  .000000000000D+00
     .340000000000D+01  .000000000000D+00 -.139698386192D-08  .430000000000D+02
     .237606000000D+06  .400000000000D+01
25 08 10 28 20  0  0.0 -.224863179028D-04  .328554961015D-10  .000000000000D+00
     .850000000000D+02 -.282500000000D+02  .409231331842D-08 -.316066153035D+00
    -.148452818394D-05  .116198437754D-01  .119451433420D-04  .515369558525D+04
     .244800000000D+06 -.271946191788D-06  .127157459727D+00 -.391155481339D-07
     .967268981653D+00  .155812500000D+03 -.125078913682D+01 -.786282751833D-08
     .417160233541D-09  .100000000000D+01  .150300000000D+04  .000000000000D+00
     .340000000000D+01  .000000000000D+00 -.745058059692D-08  .850000000000D+02
     .237606000000D+06  .400000000000D+01
26 08 10 28 20  0  0.0  .852905213833D-05  .477484718431D-11  .000000000000D+00
     .840000000000D+02 -.139593750000D+03  .359229249054D-08  .257307075834D+01
    -.734068453312D-05  .192432773765D-01  .685080885887D-05  .515363825798D+04
     .244800000000D+06  .819563865662D-07 -.775103671779D+00 -.266358256340D-06
     .993330200144D+00  .262875000000D+03  .957963554319D+00 -.750459831093D-08
    -.371444043564D-09  .100000000000D+01  .150300000000D+04  .000000000000D+00
     .240000000000D+01  .000000000000D+00 -.605359673500D-08  .840000000000D+02
     .237606000000D+06  .400000000000D+01
27 08 10 28 20  0  0.0  .228583347052D-03  .284217094304D-11  .000000000000D+00
     .230000000000D+02 -.185625000000D+02  .403088218814D-08 -.367311193197D+00
    -.910833477974D-06  .212995647453D-01  .121146440506D-04  .515371702766D+04
     .244800000000D+06 -.286847352982D-06  .162498798533D+00  .245869159698D-06
     .971881777406D+00  .157281250000D+03 -.167915780835D+01 -.804140638542D-08
     .497877881469D-09  .100000000000D+01  .150300000000D+04  .000000000000D+00
     .240000000000D+01  .000000000000D+00 -.419095158577D-08  .230000000000D+02
     .237606000000D+06  .400000000000D+01
28 08 10 28 20  0  0.0 -.233361497521D-04 -.113686837722D-12  .000000000000D+00
     .115000000000D+03  .163750000000D+02  .481091467962D-08 -.155197520399D+01
     .102631747723D-05  .141089494573D-01  .455416738987D-05  .515362544250D+04
     .244800000000D+06  .331550836563D-06  .129745393555D+01  .894069671631D-07
     .964414162852D+00  .288875000000D+03 -.208820353813D+01 -.806033574534D-08
     .288940606965D-09  .100000000000D+01  .150300000000D+04  .000000000000D+00
     .340000000000D+01  .000000000000D+00 -.102445483208D-07  .115000000000D+03
     .237606000000D+06  .400000000000D+01
30 08 10 28 20  0  0.0  .104652252048D-03  .216004991671D-11  .000000000000D+00
     .990000000000D+02  .272500000000D+02  .524557564214D-08 -.113475098533D+01
     .166893005371D-05  .111746713519D-01  .526010990143D-05  .515366804314D+04
     .244800000000D+06 -.558793544769D-07  .122800520739D+01  .219792127609D-06
     .949596847869D+00  .276000000000D+03  .141187545577D+01 -.846678124685D-08
     .368586781690D-09  .100000000000D+01  .150300000000D+04  .000000000000D+00
     .240000000000D+01  .000000000000D+00 -.791624188423D-08  .990000000000D+02
     .237606000000D+06  .400000000000D+01
31 08 10 28 20  0  0.0 -.352109782398D-04 -.227373675443D-11  .000000000000D+00
     .740000000000D+02 -.237187500000D+02  .392159192147D-08  .135388026582D+01
    -.126101076603D-05  .681314396206D-02  .112429261208D-04  .515357263374D+04
     .244800000000D+06  .856816768646D-07  .218879899764D+00 -.208616256714D-06
     .970279763612D+00  .165750000000D+03 -.123807999944D+01 -.766996234186D-08
     .428946438769D-09  .100000000000D+01  .150300000000D+04  .000000000000D+00
     .240000000000D+01  .000000000000D+00 -.130385160446D-07  .740000000000D+02
     .237606000000D+06  .400000000000D+01
32 08 10 28 20  0  0.0  .315492507070D-03 -.795807864051D-12  .000000000000D+00
     .730000000000D+02  .362187500000D+02  .464733643736D-08  .228499808549D+01
     .174716114998D-05  .139550077729D-01  .361353158951D-06  .515372798347D+04
     .244800000000D+06  .204890966415D-06 -.178740979780D+01 -.298023223877D-07
     .966706603759D+00  .370500000000D+03 -.126288143626D+01 -.822891419588D-08
    -.889322758148D-10  .100000000000D+01  .150300000000D+04  .000000000000D+00
     .240000000000D+01  .000000000000D+00 -.325962901115D-08  .730000000000D+02
     .237606000000D+06  .400000000000D+01
 9 08 10 28 19 59 44.0  .221207737923D-04  .193267624127D-11  .000000000000D+00
     .200000000000D+02 -.328437500000D+02  .400623830448D-08  .506476139690D+00
    -.175461173058D-05  .200746229384D-01  .118482857943D-04  .515366472244D+04
     .244784000000D+06 -.245869159698D-06  .186476069740D+00 -.502914190292D-07
     .973840253133D+00  .163750000000D+03  .144853249920D+01 -.799926177279D-08
     .299298181256D-09  .100000000000D+01  .150300000000D+04  .000000000000D+00
     .240000000000D+01  .000000000000D+00 -.558793544769D-08  .200000000000D+02
     .237666000000D+06  .400000000000D+01
